{
    "week": 293,
    "satellites": [
        {
            "Name": "BEIDOU-3 M8 (C28)",
            "Line1": "1 43108U 18003B   24322.60795298 -.00000080  00000+0  00000+0 0  9994",
            "Line2": "2 43108  54.8147 322.3201 0005234 264.8782  95.0691  1.86230824 46623",
            "SatelliteNumber": "43108",
            "Classification": "U",
            "LaunchYear": "18",
            "LaunchNumber": "003",
            "PieceOfLaunch": "B",
            "EpochYear": "24",
            "EpochDay": 322.60795298,
            "FirstDerivativeMeanMotion": -8e-07,
            "SecondDerivativeMeanMotion": "00000+0",
            "BSTAR": "00000+0",
            "SetNumber": "999",
            "Inclination": 54.8147,
            "RAAN": 322.3201,
            "Eccentricity": 0.0005234,
            "ArgumentOfPerigee": 264.8782,
            "MeanAnomaly": 95.0691,
            "MeanMotion": 1.86230824,
            "RevolutionNumber": "4662"
        },
        {
            "Name": "BEIDOU-3 M4 (C22)",
            "Line1": "1 43207U 18018A   24321.97514572 -.00000033  00000+0  00000+0 0  9991",
            "Line2": "2 43207  56.1493  82.2621 0003854  19.0341 340.9493  1.86230999 45991",
            "SatelliteNumber": "43207",
            "Classification": "U",
            "LaunchYear": "18",
            "LaunchNumber": "018",
            "PieceOfLaunch": "A",
            "EpochYear": "24",
            "EpochDay": 321.97514572,
            "FirstDerivativeMeanMotion": -3.3e-07,
            "SecondDerivativeMeanMotion": "00000+0",
            "BSTAR": "00000+0",
            "SetNumber": "999",
            "Inclination": 56.1493,
            "RAAN": 82.2621,
            "Eccentricity": 0.0003854,
            "ArgumentOfPerigee": 19.0341,
            "MeanAnomaly": 340.9493,
            "MeanMotion": 1.86230999,
            "RevolutionNumber": "4599"
        },
        {
            "Name": "BEIDOU-3 M3 (C21)",
            "Line1": "1 43208U 18018B   24322.57871716 -.00000032  00000+0  00000+0 0  9994",
            "Line2": "2 43208  56.1493  82.2463 0005454 314.9035  45.0230  1.86231123 46006",
            "SatelliteNumber": "43208",
            "Classification": "U",
            "LaunchYear": "18",
            "LaunchNumber": "018",
            "PieceOfLaunch": "B",
            "EpochYear": "24",
            "EpochDay": 322.57871716,
            "FirstDerivativeMeanMotion": -3.2e-07,
            "SecondDerivativeMeanMotion": "00000+0",
            "BSTAR": "00000+0",
            "SetNumber": "999",
            "Inclination": 56.1493,
            "RAAN": 82.2463,
            "Eccentricity": 0.0005454,
            "ArgumentOfPerigee": 314.9035,
            "MeanAnomaly": 45.023,
            "MeanMotion": 1.86231123,
            "RevolutionNumber": "4600"
        },
        {
            "Name": "BEIDOU-3 M9 (C29)",
            "Line1": "1 43245U 18029A   24322.79861151 -.00000078  00000+0  00000+0 0  9993",
            "Line2": "2 43245  54.6996 320.0209 0002324 263.6007  96.3762  1.86232489 45162",
            "SatelliteNumber": "43245",
            "Classification": "U",
            "LaunchYear": "18",
            "LaunchNumber": "029",
            "PieceOfLaunch": "A",
            "EpochYear": "24",
            "EpochDay": 322.79861151,
            "FirstDerivativeMeanMotion": -7.8e-07,
            "SecondDerivativeMeanMotion": "00000+0",
            "BSTAR": "00000+0",
            "SetNumber": "999",
            "Inclination": 54.6996,
            "RAAN": 320.0209,
            "Eccentricity": 0.0002324,
            "ArgumentOfPerigee": 263.6007,
            "MeanAnomaly": 96.3762,
            "MeanMotion": 1.86232489,
            "RevolutionNumber": "4516"
        },
        {
            "Name": "BEIDOU-3 M10 (C30)",
            "Line1": "1 43246U 18029B   24323.26501091 -.00000078  00000+0  00000+0 0  9991",
            "Line2": "2 43246  54.6972 320.0329 0003688 343.6481  16.3430  1.86232762 45156",
            "SatelliteNumber": "43246",
            "Classification": "U",
            "LaunchYear": "18",
            "LaunchNumber": "029",
            "PieceOfLaunch": "B",
            "EpochYear": "24",
            "EpochDay": 323.26501091,
            "FirstDerivativeMeanMotion": -7.8e-07,
            "SecondDerivativeMeanMotion": "00000+0",
            "BSTAR": "00000+0",
            "SetNumber": "999",
            "Inclination": 54.6972,
            "RAAN": 320.0329,
            "Eccentricity": 0.0003688,
            "ArgumentOfPerigee": 343.6481,
            "MeanAnomaly": 16.343,
            "MeanMotion": 1.86232762,
            "RevolutionNumber": "4515"
        },
        {
            "Name": "BEIDOU-2 IGSO-7 (C16)",
            "Line1": "1 43539U 18057A   24323.50223014 -.00000068  00000+0  00000+0 0  9999",
            "Line2": "2 43539  55.1496 168.0426 0078041 232.2525 311.4244  1.00264689 23363",
            "SatelliteNumber": "43539",
            "Classification": "U",
            "LaunchYear": "18",
            "LaunchNumber": "057",
            "PieceOfLaunch": "A",
            "EpochYear": "24",
            "EpochDay": 323.50223014,
            "FirstDerivativeMeanMotion": -6.8e-07,
            "SecondDerivativeMeanMotion": "00000+0",
            "BSTAR": "00000+0",
            "SetNumber": "999",
            "Inclination": 55.1496,
            "RAAN": 168.0426,
            "Eccentricity": 0.0078041,
            "ArgumentOfPerigee": 232.2525,
            "MeanAnomaly": 311.4244,
            "MeanMotion": 1.00264689,
            "RevolutionNumber": "2336"
        },
        {
            "Name": "BEIDOU-3 M5 (C23)",
            "Line1": "1 43581U 18062A   24322.41663467  .00000046  00000+0  00000+0 0  9996",
            "Line2": "2 43581  54.1146 201.9193 0002401 326.3858  33.6959  1.86228650 42897",
            "SatelliteNumber": "43581",
            "Classification": "U",
            "LaunchYear": "18",
            "LaunchNumber": "062",
            "PieceOfLaunch": "A",
            "EpochYear": "24",
            "EpochDay": 322.41663467,
            "FirstDerivativeMeanMotion": 4.6e-07,
            "SecondDerivativeMeanMotion": "00000+0",
            "BSTAR": "00000+0",
            "SetNumber": "999",
            "Inclination": 54.1146,
            "RAAN": 201.9193,
            "Eccentricity": 0.0002401,
            "ArgumentOfPerigee": 326.3858,
            "MeanAnomaly": 33.6959,
            "MeanMotion": 1.8622865,
            "RevolutionNumber": "4289"
        },
        {
            "Name": "BEIDOU-3 M6 (C24)",
            "Line1": "1 43582U 18062B   24323.35556635  .00000032  00000+0  00000+0 0  9994",
            "Line2": "2 43582  54.1141 201.8766 0006911  35.3798 324.7606  1.86229788 42917",
            "SatelliteNumber": "43582",
            "Classification": "U",
            "LaunchYear": "18",
            "LaunchNumber": "062",
            "PieceOfLaunch": "B",
            "EpochYear": "24",
            "EpochDay": 323.35556635,
            "FirstDerivativeMeanMotion": 3.2e-07,
            "SecondDerivativeMeanMotion": "00000+0",
            "BSTAR": "00000+0",
            "SetNumber": "999",
            "Inclination": 54.1141,
            "RAAN": 201.8766,
            "Eccentricity": 0.0006911,
            "ArgumentOfPerigee": 35.3798,
            "MeanAnomaly": 324.7606,
            "MeanMotion": 1.86229788,
            "RevolutionNumber": "4291"
        },
        {
            "Name": "BEIDOU-3 M12 (C26)",
            "Line1": "1 43602U 18067A   24323.28934200  .00000034  00000+0  00000+0 0  9994",
            "Line2": "2 43602  54.2056 200.5745 0008450  32.7195 327.4282  1.86227675 42396",
            "SatelliteNumber": "43602",
            "Classification": "U",
            "LaunchYear": "18",
            "LaunchNumber": "067",
            "PieceOfLaunch": "A",
            "EpochYear": "24",
            "EpochDay": 323.289342,
            "FirstDerivativeMeanMotion": 3.4e-07,
            "SecondDerivativeMeanMotion": "00000+0",
            "BSTAR": "00000+0",
            "SetNumber": "999",
            "Inclination": 54.2056,
            "RAAN": 200.5745,
            "Eccentricity": 0.000845,
            "ArgumentOfPerigee": 32.7195,
            "MeanAnomaly": 327.4282,
            "MeanMotion": 1.86227675,
            "RevolutionNumber": "4239"
        },
        {
            "Name": "BEIDOU-3 M11 (C25)",
            "Line1": "1 43603U 18067B   24321.27496840  .00000060  00000+0  00000+0 0  9994",
            "Line2": "2 43603  54.2032 200.6077 0005065  26.8540 333.2709  1.86227148 42380",
            "SatelliteNumber": "43603",
            "Classification": "U",
            "LaunchYear": "18",
            "LaunchNumber": "067",
            "PieceOfLaunch": "B",
            "EpochYear": "24",
            "EpochDay": 321.2749684,
            "FirstDerivativeMeanMotion": 6e-07,
            "SecondDerivativeMeanMotion": "00000+0",
            "BSTAR": "00000+0",
            "SetNumber": "999",
            "Inclination": 54.2032,
            "RAAN": 200.6077,
            "Eccentricity": 0.0005065,
            "ArgumentOfPerigee": 26.854,
            "MeanAnomaly": 333.2709,
            "MeanMotion": 1.86227148,
            "RevolutionNumber": "4238"
        }
    ]
}